[{"OBJECT_NAME":"ASTRO-H (HITOMI)","OBJECT_ID":"2016-012A","EPOCH":"2026-03-06T14:14:25.258560","MEAN_MOTION":15.099802,"ECCENTRICITY":0.00099848,"INCLINATION":31.0009,"RA_OF_ASC_NODE":16.5277,"ARG_OF_PERICENTER":300.1419,"MEAN_ANOMALY":59.8229,"EPHEMERIS_TYPE":0,"CLASSIFICATION_TYPE":"U","NORAD_CAT_ID":41337,"ELEMENT_SET_NO":999,"REV_AT_EPOCH":55176,"BSTAR":0.00028461075,"MEAN_MOTION_DOT":4.836e-5,"MEAN_MOTION_DDOT":0},{"OBJECT_NAME":"HXMT (HUIYAN)","OBJECT_ID":"2017-034A","EPOCH":"2026-03-06T08:30:55.183104","MEAN_MOTION":15.1740717,"ECCENTRICITY":0.00325628,"INCLINATION":43.0152,"RA_OF_ASC_NODE":35.2125,"ARG_OF_PERICENTER":215.6297,"MEAN_ANOMALY":144.2377,"EPHEMERIS_TYPE":0,"CLASSIFICATION_TYPE":"U","NORAD_CAT_ID":42758,"ELEMENT_SET_NO":999,"REV_AT_EPOCH":48203,"BSTAR":0.00035107519,"MEAN_MOTION_DOT":7.008e-5,"MEAN_MOTION_DDOT":0},{"OBJECT_NAME":"SAOCOM 1A","OBJECT_ID":"2018-076A","EPOCH":"2026-03-06T15:43:12.876096","MEAN_MOTION":14.82164008,"ECCENTRICITY":0.00012657,"INCLINATION":97.8884,"RA_OF_ASC_NODE":253.8702,"ARG_OF_PERICENTER":82.4539,"MEAN_ANOMALY":277.6818,"EPHEMERIS_TYPE":0,"CLASSIFICATION_TYPE":"U","NORAD_CAT_ID":43641,"ELEMENT_SET_NO":999,"REV_AT_EPOCH":40091,"BSTAR":2.5044621e-5,"MEAN_MOTION_DOT":1.47e-6,"MEAN_MOTION_DDOT":0},{"OBJECT_NAME":"H-2A R/B","OBJECT_ID":"2018-084L","EPOCH":"2026-03-06T13:14:24.040032","MEAN_MOTION":15.41182954,"ECCENTRICITY":0.0025676,"INCLINATION":98.8726,"RA_OF_ASC_NODE":282.2697,"ARG_OF_PERICENTER":35.8893,"MEAN_ANOMALY":324.4068,"EPHEMERIS_TYPE":0,"CLASSIFICATION_TYPE":"U","NORAD_CAT_ID":43682,"ELEMENT_SET_NO":999,"REV_AT_EPOCH":40529,"BSTAR":0.00061646636,"MEAN_MOTION_DOT":0.0002582,"MEAN_MOTION_DDOT":0},{"OBJECT_NAME":"SAOCOM 1B","OBJECT_ID":"2020-059A","EPOCH":"2026-03-06T14:50:56.927616","MEAN_MOTION":14.8217153,"ECCENTRICITY":0.00014869,"INCLINATION":97.8883,"RA_OF_ASC_NODE":252.9326,"ARG_OF_PERICENTER":83.3101,"MEAN_ANOMALY":276.8282,"EPHEMERIS_TYPE":0,"CLASSIFICATION_TYPE":"U","NORAD_CAT_ID":46265,"ELEMENT_SET_NO":999,"REV_AT_EPOCH":29829,"BSTAR":0.00014872182,"MEAN_MOTION_DOT":1.132e-5,"MEAN_MOTION_DDOT":0},{"OBJECT_NAME":"CSS (TIANHE)","OBJECT_ID":"2021-035A","EPOCH":"2026-03-06T13:54:54.051264","MEAN_MOTION":15.60480455,"ECCENTRICITY":0.00069465,"INCLINATION":41.4662,"RA_OF_ASC_NODE":227.0812,"ARG_OF_PERICENTER":253.7842,"MEAN_ANOMALY":106.2233,"EPHEMERIS_TYPE":0,"CLASSIFICATION_TYPE":"U","NORAD_CAT_ID":48274,"ELEMENT_SET_NO":999,"REV_AT_EPOCH":27712,"BSTAR":0.00028898748,"MEAN_MOTION_DOT":0.00024243,"MEAN_MOTION_DDOT":0},{"OBJECT_NAME":"COSMOS 2550","OBJECT_ID":"2021-056A","EPOCH":"2026-03-06T12:25:36.389856","MEAN_MOTION":15.33825751,"ECCENTRICITY":0.00082937,"INCLINATION":67.1449,"RA_OF_ASC_NODE":50.5258,"ARG_OF_PERICENTER":269.7147,"MEAN_ANOMALY":90.3057,"EPHEMERIS_TYPE":0,"CLASSIFICATION_TYPE":"U","NORAD_CAT_ID":48865,"ELEMENT_SET_NO":999,"REV_AT_EPOCH":26297,"BSTAR":-2.04066e-7,"MEAN_MOTION_DOT":-1.98e-6,"MEAN_MOTION_DDOT":0},{"OBJECT_NAME":"CZ-2C R/B","OBJECT_ID":"2022-058K","EPOCH":"2026-03-06T02:30:32.770080","MEAN_MOTION":15.53925606,"ECCENTRICITY":0.00422447,"INCLINATION":50.1901,"RA_OF_ASC_NODE":336.728,"ARG_OF_PERICENTER":185.5572,"MEAN_ANOMALY":174.4935,"EPHEMERIS_TYPE":0,"CLASSIFICATION_TYPE":"U","NORAD_CAT_ID":52794,"ELEMENT_SET_NO":999,"REV_AT_EPOCH":20957,"BSTAR":0.00054511149,"MEAN_MOTION_DOT":0.00036957,"MEAN_MOTION_DDOT":0},{"OBJECT_NAME":"CZ-2C R/B","OBJECT_ID":"2022-132E","EPOCH":"2026-03-06T02:29:20.588928","MEAN_MOTION":15.61488036,"ECCENTRICITY":0.00208174,"INCLINATION":97.2964,"RA_OF_ASC_NODE":68.3129,"ARG_OF_PERICENTER":103.1705,"MEAN_ANOMALY":257.1877,"EPHEMERIS_TYPE":0,"CLASSIFICATION_TYPE":"U","NORAD_CAT_ID":54039,"ELEMENT_SET_NO":999,"REV_AT_EPOCH":18981,"BSTAR":0.00052472889,"MEAN_MOTION_DOT":0.00045399,"MEAN_MOTION_DDOT":0},{"OBJECT_NAME":"GSLV R/B","OBJECT_ID":"2022-138AN","EPOCH":"2026-03-06T10:40:36.650496","MEAN_MOTION":14.9674809,"ECCENTRICITY":0.00226055,"INCLINATION":87.3884,"RA_OF_ASC_NODE":167.4484,"ARG_OF_PERICENTER":157.9205,"MEAN_ANOMALY":202.3006,"EPHEMERIS_TYPE":0,"CLASSIFICATION_TYPE":"U","NORAD_CAT_ID":54149,"ELEMENT_SET_NO":999,"REV_AT_EPOCH":18344,"BSTAR":0.00035960126,"MEAN_MOTION_DOT":4.158e-5,"MEAN_MOTION_DDOT":0},{"OBJECT_NAME":"XRISM","OBJECT_ID":"2023-137A","EPOCH":"2026-03-06T01:47:21.494112","MEAN_MOTION":15.11449805,"ECCENTRICITY":0.00080617,"INCLINATION":31.0027,"RA_OF_ASC_NODE":307.0459,"ARG_OF_PERICENTER":1.6884,"MEAN_ANOMALY":358.3781,"EPHEMERIS_TYPE":0,"CLASSIFICATION_TYPE":"U","NORAD_CAT_ID":57800,"ELEMENT_SET_NO":999,"REV_AT_EPOCH":13724,"BSTAR":0.00034222498,"MEAN_MOTION_DOT":6.032e-5,"MEAN_MOTION_DDOT":0},{"OBJECT_NAME":"ACS3","OBJECT_ID":"2024-077B","EPOCH":"2026-03-06T09:38:20.244480","MEAN_MOTION":13.89441729,"ECCENTRICITY":0.00572699,"INCLINATION":97.2094,"RA_OF_ASC_NODE":7.2527,"ARG_OF_PERICENTER":85.3402,"MEAN_ANOMALY":275.4299,"EPHEMERIS_TYPE":0,"CLASSIFICATION_TYPE":"U","NORAD_CAT_ID":59588,"ELEMENT_SET_NO":999,"REV_AT_EPOCH":9374,"BSTAR":0.022567773,"MEAN_MOTION_DOT":0.00027985,"MEAN_MOTION_DDOT":0},{"OBJECT_NAME":"SZ-21 MODULE","OBJECT_ID":"2025-246C","EPOCH":"2026-03-06T12:11:03.500160","MEAN_MOTION":15.68252686,"ECCENTRICITY":0.00014339,"INCLINATION":41.4735,"RA_OF_ASC_NODE":222.9439,"ARG_OF_PERICENTER":292.6372,"MEAN_ANOMALY":67.4317,"EPHEMERIS_TYPE":0,"CLASSIFICATION_TYPE":"U","NORAD_CAT_ID":66515,"ELEMENT_SET_NO":999,"REV_AT_EPOCH":1757,"BSTAR":0.00036494457,"MEAN_MOTION_DOT":0.0004195,"MEAN_MOTION_DDOT":0}]
