ASTRO-H (HITOMI)        
1 41337U 16012A   26065.59334790  .00004836  00000+0  28461-3 0  9991
2 41337  31.0009  16.5277 0009984 300.1419  59.8229 15.09980200551762
HXMT (HUIYAN)           
1 42758U 17034A   26065.35480536  .00007008  00000+0  35108-3 0  9998
2 42758  43.0152  35.2125 0032562 215.6297 144.2377 15.17407170482039
SAOCOM 1A               
1 43641U 18076A   26065.65501014  .00000147  00000+0  25045-4 0  9992
2 43641  97.8884 253.8702 0001265  82.4539 277.6818 14.82164008400913
H-2A R/B                
1 43682U 18084L   26065.55166713  .00025820  00000+0  61647-3 0  9990
2 43682  98.8726 282.2697 0025676  35.8893 324.4068 15.41182954405290
SAOCOM 1B               
1 46265U 20059A   26065.61871444  .00001132  00000+0  14872-3 0  9994
2 46265  97.8883 252.9326 0001486  83.3101 276.8282 14.82171530298299
CSS (TIANHE)            
1 48274U 21035A   26065.57979226  .00024243  00000+0  28899-3 0  9995
2 48274  41.4662 227.0812 0006946 253.7842 106.2233 15.60480455277122
COSMOS 2550             
1 48865U 21056A   26065.51778229 -.00000198  00000+0 -20407-6 0  9993
2 48865  67.1449  50.5258 0008293 269.7147  90.3057 15.33825751262977
CZ-2C R/B               
1 52794U 22058K   26065.10454595  .00036957  00000+0  54511-3 0  9994
2 52794  50.1901 336.7280 0042244 185.5572 174.4935 15.53925606209571
CZ-2C R/B               
1 54039U 22132E   26065.10371052  .00045399  00000+0  52473-3 0  9992
2 54039  97.2964  68.3129 0020817 103.1705 257.1877 15.61488036189810
GSLV R/B                
1 54149U 22138AN  26065.44486864  .00004158  00000+0  35960-3 0  9995
2 54149  87.3884 167.4484 0022605 157.9205 202.3006 14.96748090183442
XRISM                   
1 57800U 23137A   26065.07455433  .00006032  00000+0  34222-3 0  9992
2 57800  31.0027 307.0459 0008061   1.6884 358.3781 15.11449805137245
ACS3                    
1 59588U 24077B   26065.40162320  .00027985  00000+0  22568-1 0  9996
2 59588  97.2094   7.2527 0057269  85.3402 275.4299 13.89441729 93741
SZ-21 MODULE            
1 66515U 25246C   26065.50767940  .00041950  00000+0  36494-3 0  9996
2 66515  41.4735 222.9439 0001433 292.6372  67.4317 15.68252686 17579
